NUSAT-48 (HENRIETTA LE*)
1 60498U 24149AG  26068.80506098  .00012988  00000+0  45212-3 0  9999
2 60498  97.3923 150.8264 0002754 263.3026  96.7901 15.29812597 86946
STARLINK-32478          
1 61726U 24196V   26068.80668570 -.00001021  00000+0 -22345-4 0  9991
2 61726  53.1607 100.8552 0001426  82.1334 277.9828 15.30194201 77172
